GLOBALSTAR M063         
1 26081U 00008A   25138.60457385 -.00000023  00000+0  86988-3 0  9999
2 26081  51.9928 189.4838 0004719 256.7748 266.4756 11.86174045154063
GLOBALSTAR M062         
1 26082U 00008B   25138.88804789 -.00000028  00000+0  50074-3 0  9996
2 26082  51.9824 181.9436 0006922  50.4741 120.8461 12.43467305492979
GLOBALSTAR M060         
1 26083U 00008C   25138.78355076 -.00000135  00000+0 -44194-3 0  9992
2 26083  51.9986 138.0967 0003133  62.8408 108.7302 12.17660419148787
GLOBALSTAR M064         
1 26084U 00008D   25138.70869375 -.00000084  00000+0 -12305-4 0  9990
2 26084  52.0036 288.3834 0001276  33.6963 326.3950 11.88534053163590
GLOBALSTAR M065         
1 31571U 07020A   25138.94238514 -.00000034  00000+0  39157-3 0  9996
2 31571  51.9903 315.2804 0009588 240.8724 274.8185 12.62007838829715
GLOBALSTAR M069         
1 31573U 07020C   25138.84621468 -.00000060  00000+0  27708-3 0  9999
2 31573  51.9955 289.2891 0001685 124.3878  26.5649 12.39476732830510
GLOBALSTAR M072         
1 31574U 07020D   25138.81291624 -.00000076  00000+0  10576-3 0  9996
2 31574  51.9939  70.1679 0000775 295.8300  98.9467 11.91649155827961
GLOBALSTAR M071         
1 31576U 07020F   25138.74493606 -.00000127  00000+0 -35155-3 0  9992
2 31576  52.0073 313.3297 0001452  78.0954 295.3668 12.18254102491351
